{
  "type": "FeatureCollection",
  "name": "tiny_b118_basins",
  "features": [
    {
      "type": "Feature",
      "properties": {
        "basin_id": "5-022.01",
        "name": "Sacramento Valley - Tiny Test",
        "basin_name": "Sacramento Valley - Tiny Test",
        "target_relevance": "groundwater_observation",
        "notes": "Download-free B118-like fixture for tests only."
      },
      "geometry": {
        "type": "Polygon",
        "coordinates": [
          [
            [-122.5, 38.0],
            [-121.0, 38.0],
            [-121.0, 40.0],
            [-122.5, 40.0],
            [-122.5, 38.0]
          ]
        ]
      }
    },
    {
      "type": "Feature",
      "properties": {
        "basin_id": "5-022.15",
        "name": "San Joaquin Valley - Tiny Test",
        "basin_name": "San Joaquin Valley - Tiny Test",
        "target_relevance": "groundwater_observation",
        "notes": "Download-free B118-like fixture for tests only."
      },
      "geometry": {
        "type": "Polygon",
        "coordinates": [
          [
            [-121.0, 35.5],
            [-119.0, 35.5],
            [-119.0, 37.5],
            [-121.0, 37.5],
            [-121.0, 35.5]
          ]
        ]
      }
    }
  ]
}
